{"type":"FeatureCollection","features":[{"type":"Feature","id":1,"geometry":{"type":"Polygon","coordinates":[[[-81.48112920799997,41.349666300000081],[-81.512632679999967,41.350042057000053],[-81.540754471999946,41.350655374000041],[-81.592037834999985,41.351183396000067],[-81.598062972999969,41.351183396000067],[-81.598082551999937,41.350608272000045],[-81.595522842999969,41.350457923000079],[-81.595065249999948,41.349725957000032],[-81.594694894999975,41.349551672000075],[-81.594259183999952,41.349420959000042],[-81.593114277999973,41.349448079000069],[-81.592647051999961,41.349290246000066],[-81.592592587999945,41.348647571000072],[-81.59305008399997,41.347895969000035],[-81.593616509999947,41.347362223000061],[-81.593943292999938,41.347242402000063],[-81.594400790999941,41.34731865200007],[-81.595980243999975,41.347885076000068],[-81.596855750999964,41.347032716000058],[-81.596651511999937,41.345568998000033],[-81.595460112999945,41.34417336000007],[-81.594438914999955,41.343713821000051],[-81.59334963699996,41.343679781000048],[-81.591833750999967,41.343883364000078],[-81.590405180999937,41.343747861000054],[-81.589511285999947,41.343873864000045],[-81.588379803999942,41.343101102000048],[-81.587835164999944,41.342182023000078],[-81.587527442999942,41.338321212000039],[-81.587614585999972,41.336600153000063],[-81.588131883999949,41.33531027500004],[-81.588838279999948,41.334645432000059],[-81.591082123999968,41.331030350000049],[-81.591539202999968,41.328994269000077],[-81.591497650999941,41.328246321000051],[-81.591123676999985,41.327415267000049],[-81.590500385999974,41.326625767000053],[-81.589378463999935,41.325670055000046],[-81.588505857999962,41.325420739000037],[-81.587841014999981,41.324922107000077],[-81.586802198999976,41.323384658000066],[-81.586677540999972,41.322013420000076],[-81.587176172999989,41.320517524000024],[-81.587176172999989,41.319769576000056],[-81.58692685699998,41.319146286000034],[-81.586428224999963,41.318647654000074],[-81.586137355999938,41.318024363000063],[-81.584475248999979,41.31673623100005],[-81.583170259999974,41.316127206000033],[-81.583431756999971,41.316001899000071],[-81.582952474999956,41.314879942000061],[-81.583837998999968,41.313159407000057],[-81.583747029999984,41.312587601000075],[-81.583318174999988,41.312093768000068],[-81.583253196999976,41.311054120000051],[-81.583627683999964,41.31027216800004],[-81.585202536999986,41.309481653000034],[-81.584633166999936,41.307622471000059],[-81.584491028999935,41.307399109000073],[-81.584084915999938,41.307338192000032],[-81.583313301999965,41.307622471000059],[-81.580348094999977,41.307782684000074],[-81.579353705999949,41.306525967000027],[-81.57879494599996,41.306316741000046],[-81.578300464999984,41.305712376000031],[-81.577355756999964,41.305662654000059],[-81.576104806999979,41.304536016000043],[-81.575251970999943,41.303480124000032],[-81.575840834999951,41.301530784000079],[-81.575292581999975,41.300839124000049],[-81.574554199999966,41.300713079000047],[-81.574028793999958,41.300410609000039],[-81.573567587999946,41.299839501000065],[-81.573082523999972,41.299779719000071],[-81.57263084899995,41.299365349000027],[-81.57235682999999,41.29841820300004],[-81.573153357999956,41.297756028000038],[-81.573537227999964,41.297113048000028],[-81.573322200999939,41.296867130000066],[-81.572732154999983,41.296829444000025],[-81.571348092999983,41.297236521000059],[-81.570605158999967,41.296746288000065],[-81.570466795999948,41.296374976000038],[-81.570938271999978,41.295680373000039],[-81.572618149999983,41.295372968000038],[-81.572769161999986,41.294778961000077],[-81.572367759999963,41.294381738000027],[-81.571509147999961,41.294134743000029],[-81.569851233999941,41.294148954000036],[-81.569287134999968,41.293697456000075],[-81.56927355299996,41.293487911000057],[-81.57099926799998,41.292201900000066],[-81.571200317999967,41.291543019000073],[-81.57030502899994,41.290774011000053],[-81.56909806799996,41.290184173000057],[-81.568217004999951,41.290529966000065],[-81.567534893999948,41.290511018000075],[-81.566672777999941,41.290406807000068],[-81.565815399999963,41.290098908000061],[-81.565450658999964,41.289800484000068],[-81.56457224899998,41.287978864000024],[-81.564584374999981,41.287678734000053],[-81.564878441999952,41.287436205000063],[-81.565639376999968,41.287451363000059],[-81.566661029999977,41.287954611000032],[-81.566924779999965,41.287927326000045],[-81.567676998999957,41.287000387000035],[-81.568039667999983,41.285786557000051],[-81.567040478999957,41.28481697400008],[-81.56644096499997,41.284631939000064],[-81.565634212999953,41.284646742000064],[-81.565204931999972,41.284446904000049],[-81.565138024999953,41.283391465000079],[-81.564849072999948,41.28278040500004],[-81.561920125999961,41.280485938000027],[-81.561728596999956,41.279948121000075],[-81.561807985999963,41.279511948000049],[-81.561556931999974,41.279170891000035],[-81.561727459999986,41.278810887000077],[-81.561907460999976,41.278673517000072],[-81.562613258999988,41.278739834000078],[-81.564792229999966,41.279805635000059],[-81.565711187999966,41.27870193900003],[-81.565682766999942,41.278517200000067],[-81.565493385999957,41.278274833000069],[-81.565128150999954,41.278157602000078],[-81.564631176999967,41.278237723000075],[-81.56432594499995,41.277945935000048],[-81.684737621999943,41.27719040900007],[-81.685538288999965,41.223562442000059],[-81.685580957999946,41.202361136000036],[-81.686053889999982,41.199712713000054],[-81.686129559999983,41.181427247000045],[-81.686999756999967,41.149014338000029],[-81.687567275999982,41.078831140000034],[-81.687378101999968,41.06691323900003],[-81.687756447999959,41.045347512000035],[-81.687188929999934,41.042604503000064],[-81.687851033999948,41.040996532000065],[-81.687851033999948,41.024727651000035],[-81.68854990899996,40.988620728000058],[-81.647667917999968,40.988542043000052],[-81.647672756999953,40.948600972000065],[-81.647841569999969,40.934119126000041],[-81.64769986899995,40.914207499000042],[-81.610596450999935,40.912940373000026],[-81.602526394999984,40.912887383000054],[-81.590598203999946,40.912250767000046],[-81.577988486999971,40.911954708000053],[-81.545124592999969,40.910551861000044],[-81.494776252999941,40.908836974000053],[-81.436225005999972,40.906872151000073],[-81.42024302699997,40.906568235000066],[-81.420101704999979,40.912459937000051],[-81.416312814999969,40.988514446000067],[-81.39332749099998,40.988517164000029],[-81.393101471999955,41.025450600000056],[-81.393099001999985,41.038909602000047],[-81.393281522999985,41.04025069000005],[-81.393173850999972,41.05096642500007],[-81.393119069999955,41.051071020000052],[-81.39296436099994,41.052407108000068],[-81.394216834999952,41.052960785000039],[-81.395411525999975,41.053248261000078],[-81.397856391999937,41.053338718000077],[-81.400161931999946,41.053688374000046],[-81.402939383999978,41.054375745000073],[-81.409301592999952,41.054177725000045],[-81.416028125999958,41.053802272000041],[-81.419452336999939,41.054465939000067],[-81.420049042999949,41.052649805000044],[-81.420612957999936,41.042842474000054],[-81.422256894999975,41.043069904000049],[-81.429720129999964,41.044623711000042],[-81.435547589999942,41.045526533000043],[-81.437285214999974,41.045603437000068],[-81.437286086999961,41.044696351000027],[-81.444535475999942,41.04477679200005],[-81.447870634999958,41.042863629000067],[-81.461165372999972,41.04281366500004],[-81.47044327399999,41.042989422000062],[-81.474860662999959,41.041362403000051],[-81.481887331999985,41.041382849000058],[-81.481910178999954,41.029538493000075],[-81.483365035999952,41.025636156000076],[-81.492557428999987,41.02566739100007],[-81.498791451999978,41.025170521000064],[-81.51627999599998,41.024347000000034],[-81.521700305999957,41.024388747000046],[-81.525237907999951,41.024710768000034],[-81.545859630999985,41.027497511000036],[-81.547292299999981,41.028149494000047],[-81.550313369999969,41.023464211000032],[-81.550542722999978,41.022416602000078],[-81.550341569999944,41.021769187000075],[-81.564503530999957,41.019487993000041],[-81.565255771999944,41.019557341000052],[-81.566339093999943,41.019890932000067],[-81.567429914999934,41.020511738000039],[-81.575413091999962,41.016830972000037],[-81.575441278999961,41.012355551000041],[-81.575659616999985,41.010611967000045],[-81.575494870999989,41.00888857800004],[-81.575599784999952,41.007031294000058],[-81.575001277999945,41.005292194000049],[-81.574755294999989,41.003169596000077],[-81.575060648999965,41.00105142700005],[-81.575565560999962,40.999682073000031],[-81.576302050999971,40.998374359000024],[-81.577257505999967,40.997150657000077],[-81.579668442999946,40.995098345000031],[-81.581114655999954,40.994259278000072],[-81.582892002999984,40.993485743000065],[-81.586697922999974,40.992331157000081],[-81.589477159999944,40.992006065000055],[-81.600310173999958,40.991927158000067],[-81.602961028999971,40.99213856800003],[-81.605087628999968,40.992591200000049],[-81.606639404999953,40.993097443000067],[-81.608477487999949,40.993944432000035],[-81.609870488999945,40.994798359000072],[-81.612035851999963,40.996488720000059],[-81.61397012599997,40.99875583000005],[-81.615064666999956,41.001202312000032],[-81.615790168999979,41.001083356000038],[-81.619975767999961,41.002208119000045],[-81.62268804699994,41.00248743700007],[-81.633649712999954,41.005919897000069],[-81.634424584999977,41.006251939000038],[-81.634852087999946,41.006704651000064],[-81.638139875999968,41.006073445000027],[-81.637811705999979,41.036588821000066],[-81.628002580999976,41.036726768000051],[-81.623817269999961,41.036459556000068],[-81.621045570999968,41.03609133100008],[-81.61729457499996,41.035890411000025],[-81.615149240999983,41.035525699000061],[-81.612128915999961,41.035448302000077],[-81.608419108999954,41.035124258000053],[-81.602608861999954,41.035500257000081],[-81.600655538999945,41.03878214000008],[-81.595857839999951,41.043590162000044],[-81.595380743999954,41.045943167000075],[-81.595295025999974,41.047568612000077],[-81.59577219199997,41.050844573000063],[-81.595629930999962,41.052262255000073],[-81.595131002999949,41.053926583000077],[-81.595541815999979,41.05596806300008],[-81.595394885999951,41.057975237000051],[-81.590965280999967,41.059087398000031],[-81.588736343999983,41.059867721000046],[-81.58807706999994,41.063132066000037],[-81.587186580999969,41.06492939900005],[-81.58439225699999,41.066401426000027],[-81.583125259999974,41.067658582000035],[-81.581569136999974,41.06813795100004],[-81.579010700999959,41.06522370600004],[-81.574691996999945,41.066112543000031],[-81.573955634999948,41.068994660000044],[-81.574152914999956,41.077425576000053],[-81.575504024999987,41.080618039000058],[-81.581764279999959,41.086267127000042],[-81.584128213999975,41.089953114000025],[-81.58684722299995,41.097705122000036],[-81.587789960999942,41.099223922000078],[-81.588895304999937,41.10055899200006],[-81.591462987999989,41.102665093000041],[-81.593207241999949,41.103649965000045],[-81.608041319999984,41.110731079000061],[-81.613052635999964,41.115044751000028],[-81.615632513999969,41.116615484000079],[-81.617619841999954,41.117570365000063],[-81.620285627999976,41.118391127000052],[-81.624994155999957,41.118898366000053],[-81.640379817999985,41.119229458000063],[-81.648744964999935,41.119055087000049],[-81.651447231999953,41.118602163000048],[-81.654584087999979,41.117777455000066],[-81.653891581999972,41.122898129000077],[-81.652192750999973,41.130526717000066],[-81.651911492999943,41.132945579000079],[-81.652480704999959,41.133736243000044],[-81.653250689999936,41.137741343000073],[-81.649568000999977,41.140274222000073],[-81.647399535999966,41.141322100000025],[-81.644555587999946,41.143052260000047],[-81.642299861999959,41.144125571000075],[-81.640680674999942,41.145099736000077],[-81.636333525999987,41.146796494000057],[-81.632684713999936,41.146780430000035],[-81.631162768999957,41.146985833000031],[-81.626758001999974,41.148150911000073],[-81.616233235999971,41.141637107000065],[-81.61528377999997,41.139686471000061],[-81.614736784999934,41.137050269000042],[-81.614462979999985,41.134585702000038],[-81.611996314999942,41.134415069000056],[-81.609741759999963,41.133462632000032],[-81.608757172999958,41.132597891000046],[-81.607251387999952,41.132170665000046],[-81.604729176999967,41.132421245000046],[-81.603074944999946,41.132807353000032],[-81.60012524199999,41.133926300000041],[-81.598375034999947,41.134034082000028],[-81.597126531999947,41.13398795300003],[-81.595690915999967,41.133457229000044],[-81.594400216999986,41.132382173000053],[-81.591326954999943,41.133526830000051],[-81.589098468999964,41.133197567000025],[-81.587890452999943,41.133603604000029],[-81.583630328999959,41.133807711000031],[-81.580208600999981,41.133709813000053],[-81.577984838999953,41.133351702000027],[-81.576556656999969,41.134542282000041],[-81.57605582299999,41.138739186000066],[-81.574229632999959,41.140734121000037],[-81.568912049999938,41.140809536000063],[-81.564540946999955,41.140301332000035],[-81.563000551999949,41.138663437000048],[-81.558785751999949,41.136460701000033],[-81.549665838999942,41.133186630000068],[-81.544750090999969,41.132074361000036],[-81.543371756999989,41.130936838000025],[-81.542684159999965,41.129837682000073],[-81.541789154999947,41.126874974000032],[-81.541854423999951,41.12507279700003],[-81.542195375999938,41.123125145000074],[-81.54158124199995,41.119882239000049],[-81.540643066999962,41.117321075000064],[-81.540579625999953,41.114805010000055],[-81.542239336999955,41.110733421000077],[-81.542837463999945,41.107428467000034],[-81.542516514999988,41.105420935000041],[-81.534144623999964,41.104439697000032],[-81.532806727999969,41.10452747800008],[-81.531189447999964,41.103802980000069],[-81.521986965999986,41.101429937000034],[-81.524221029999978,41.10722092900005],[-81.524895147999985,41.115307508000058],[-81.524306078999984,41.117980756000065],[-81.524263266999981,41.12004909500007],[-81.523969186999977,41.121435592000068],[-81.522549278999975,41.126531482000075],[-81.521830750999982,41.127754789000051],[-81.518476704999955,41.129579849000038],[-81.514732448999951,41.130720584000073],[-81.514602725999964,41.13270542600003],[-81.514199734999977,41.133736715000055],[-81.51399687299994,41.134935542000051],[-81.51375428099999,41.138105160000066],[-81.513863775999937,41.141238693000048],[-81.514140511999983,41.142165737000028],[-81.515182623999976,41.143707111000026],[-81.516642871999977,41.144862428000067],[-81.517124562999982,41.146386537000069],[-81.516925780999941,41.149393681000049],[-81.520021362999955,41.149752484000032],[-81.520869577999974,41.150391374000037],[-81.522234463999951,41.151099827000053],[-81.522312467999939,41.152027770000075],[-81.523207498999966,41.15503508900008],[-81.522206336999943,41.158961674000068],[-81.52403008999994,41.161223345000053],[-81.524133153999969,41.161783360000072],[-81.523818407999954,41.162590769000076],[-81.523022431999948,41.163789709000071],[-81.52290465699997,41.164755217000049],[-81.523059196999952,41.166600583000047],[-81.522676452999974,41.168949708000071],[-81.523012318999974,41.171752593000065],[-81.523127446999979,41.176772824000068],[-81.522980737999944,41.179959188000055],[-81.522376688999941,41.184087073000057],[-81.519844951999971,41.187277148000078],[-81.518630283999983,41.188326274000076],[-81.517059739999979,41.189363296000067],[-81.515483155999959,41.190139783000063],[-81.512900953999974,41.190997141000025],[-81.511077567999962,41.191349531000071],[-81.508785068999941,41.191525934000026],[-81.508863446999953,41.192742752000072],[-81.508629869999936,41.194541124000068],[-81.508853449999947,41.195948398000041],[-81.508832058999985,41.197370034000073],[-81.508565172999965,41.198777397000072],[-81.507895862999987,41.200459599000055],[-81.50859500599995,41.20177680200004],[-81.509190269999976,41.203534901000069],[-81.509414767999942,41.204946480000046],[-81.509290435999958,41.207075093000071],[-81.508902205999959,41.208466257000055],[-81.508276829999943,41.209807248000061],[-81.507424993999962,41.211075117000064],[-81.506169161999935,41.212420874000031],[-81.505583178999984,41.215230783000038],[-81.504920288999983,41.216996837000067],[-81.505414199999962,41.219274270000028],[-81.505392726999958,41.220695897000041],[-81.505125673999942,41.222103246000074],[-81.504323158999966,41.224043018000032],[-81.504739103999952,41.225712533000035],[-81.504821265999965,41.226952388000029],[-81.50450180699994,41.230970599000045],[-81.503831098999967,41.234958817000063],[-81.503322890999982,41.236327795000079],[-81.502327798999943,41.237984697000059],[-81.50076162299996,41.239703405000057],[-81.499257098999976,41.240784469000062],[-81.503349688999947,41.246707179000055],[-81.513860685999987,41.264240187000041],[-81.513660480999988,41.270615475000056],[-81.507011434999981,41.270292580000046],[-81.503904467999973,41.270315718000063],[-81.502149466999981,41.27277225000006],[-81.495331471999975,41.270544162000078],[-81.491674448999959,41.267323715000032],[-81.488953880999986,41.262517308000042],[-81.484484047999956,41.258014331000027],[-81.483761443999981,41.251727839000068],[-81.485011285999974,41.249051887000064],[-81.487788225999964,41.246197788000075],[-81.487694424999972,41.243466573000035],[-81.480841636999969,41.241253159000053],[-81.47675256499997,41.237401086000034],[-81.475443677999976,41.234000750000064],[-81.476768051999954,41.228003752000063],[-81.47775249099999,41.224698012000033],[-81.477272136999943,41.216600643000049],[-81.480289539999944,41.204432097000051],[-81.481412554999963,41.201388413000075],[-81.479135221999968,41.19555474100008],[-81.478348262999987,41.194330251000054],[-81.478587881999943,41.193187093000063],[-81.477384459999939,41.18962023000006],[-81.477254676999962,41.182020027000078],[-81.478645237999956,41.172224678000077],[-81.478337954999972,41.169676455000058],[-81.476557849999949,41.167711147000034],[-81.468556808999949,41.161578588000054],[-81.459141929999987,41.151231102000054],[-81.451155943999936,41.129368356000043],[-81.451348489999987,41.123162707000063],[-81.451809877999949,41.117482406000079],[-81.451613187999953,41.11251358700008],[-81.451711860999978,41.110612118000063],[-81.438428615999953,41.09984514100006],[-81.429933612999946,41.093515634000028],[-81.430130851999934,41.090462991000038],[-81.429934369999955,41.086326195000026],[-81.430456699999979,41.085888260000047],[-81.431114237999964,41.084835764000047],[-81.431236356999989,41.083808635000025],[-81.430522749999966,41.082915116000038],[-81.430245095999965,41.081666926000025],[-81.428829581999935,41.080887733000054],[-81.429062769999973,41.076548462000062],[-81.429971102999957,41.074819154000068],[-81.431366528999945,41.073731530000032],[-81.432262127999934,41.072313861000055],[-81.41759429199999,41.072071608000044],[-81.41703358999996,41.061827641000036],[-81.419231830999934,41.055128015000037],[-81.41601406999996,41.054506045000039],[-81.412111894999953,41.054527689000054],[-81.404778902999965,41.054642245000025],[-81.40261598799998,41.054604149000056],[-81.400252360999957,41.054002670000045],[-81.397999786999947,41.053574990000072],[-81.396176748999949,41.053447377000055],[-81.394737479999947,41.053275951000046],[-81.394173261999981,41.053101325000057],[-81.392965389999972,41.052542722000055],[-81.39261578199995,41.055890700000077],[-81.39306882599999,41.060960689000069],[-81.392752534999943,41.065139538000039],[-81.392971859999989,41.066288310000061],[-81.39289437399998,41.089587882000046],[-81.392510701999981,41.11117932500008],[-81.392416213999979,41.152029534000064],[-81.392166077999946,41.171822987000041],[-81.39217500899997,41.260434487000055],[-81.391692898999963,41.348170206000077],[-81.48112920799997,41.349666300000081]]]},"properties":{"OBJECTID":1,"Name":null,"Shape_Length":2.7950468002728539,"Shape_Area":0.092259079816842268}}]}